ORBCOMM FM20            
1 25416U 98046D   25026.77886323  .00002434  00000+0  86650-3 0  9994
2 25416  44.9930 130.7006 0002315 239.0138 121.0483 14.36668420383927
ORBCOMM FM16            
1 25417U 98046E   25026.79443170  .00003356  00000+0  11418-2 0  9999
2 25417  44.9929 123.9538 0005437 280.9234  79.1003 14.38149311383892
ORBCOMM FM15            
1 25418U 98046F   25026.73694486  .00002936  00000+0  10115-2 0  9998
2 25418  44.9959 128.9628 0004866 279.2654  80.7644 14.37824485383882
ORBCOMM FM14            
1 25419U 98046G   25026.57960622  .00002781  00000+0  95482-3 0  9998
2 25419  44.9948 128.3273 0004250 266.5924  93.4438 14.38128816383829
ORBCOMM FM13            
1 25420U 98046H   25026.78608999  .00002684  00000+0  94311-3 0  9991
2 25420  44.9962 134.0240 0006079 269.5282  90.4870 14.37044397382899
ORBCOMM FM21            
1 25475U 98053A   25026.69422213  .00001847  00000+0  66735-3 0  9991
2 25475  45.0055 219.3096 0001373 196.9586 163.1216 14.36803672376895
ORBCOMM FM22            
1 25476U 98053B   25026.82649109  .00002412  00000+0  84200-3 0  9998
2 25476  45.0048 214.5959 0003264 213.0566 147.0078 14.37672971376921
ORBCOMM FM23            
1 25477U 98053C   25026.91884868  .00002038  00000+0  72974-3 0  9991
2 25477  45.0056 220.5394 0002343 207.4031 152.6693 14.36924929377076
